{"address": {"coord": [-7.8084649, 110.3609373], "street": "Magangan Kulon No.1, Panembahan, Kraton", "zipcode": "55131"}, "city": "Jogjakarta", "cuisine": "Rice", "name": "Bale Raos Kraton", "restaurant_id": "50035145"}
{"address": {"coord": [-7.8047843, 110.3012054], "street": "Laksda Adisucipto No.208, Janti, Caturtunggal", "zipcode": "55281"  }, "city": "Jogjakarta", "cuisine": "Chicken", "name": "RM AYAM GORENG SUHARTI", "restaurant_id": "50035146"}
{"address": {"coord": [-7.8186459, 110.362329], "street": "Tirtodipuran No. 24 A, Mantrijeron", "zipcode": "5514"}, "city": "Jogjakarta", "cuisine": "Europea", "name": "Mediterranea Restaurant by Kamil", "restaurant_id": "50035147"}
{"address": {"coord": [-7.7828944, 110.3828443], "street": "Urip Sumoharjo No.103H, Klitren, Gondokusuman", "zipcode": "55222" }, "city": "Jogjakarta", "cuisine": "Indian Food", "name": "Taj Indian Kitchen", "restaurant_id": "50035148"}
{"address": {"coord": [-7.8192449, 110.3700877], "street": "Prawirotaman No.39, Brontokusuman, Mergangsan", "zipcode": "55153" }, "city": "Jogjakarta", "cuisine": "Thai Food", "name": "Yam Yam Restaurant", "restaurant_id": "50035149"}
{"address": {"coord": [-7.7963367, 110.3620177], "street": "Pajeksan No.25, Ngupasan, Gondomanan", "zipcode": "55122" }, "city": "Jogjakarta", "cuisine": "Chinnese Food", "name": "Mahkota Chinese Restaurant", "restaurant_id": "50035150"}
{"address": {"coord": [-7.7882619, 110.355944], "street": "Tentara Rakyat Mataram No.5, Bumijo, Jetis", "zipcode": "55231" }, "city": "Jogjakarta", "cuisine": "Steak", "name": "Atap Grill Restaurant", "restaurant_id": "50035151"}
{"address": {"coord": [-7.7830772, 110.3655973], "street": "Jend. Sudirman No.16, Gowongan, Jetis", "zipcode": "55233" }, "city": "Jogjakarta", "cuisine": "Indonesian Food", "name": "Madam Tan Classic Tugu", "restaurant_id": "50035152"}